{
  "type": "FeatureCollection",
  "features": [
    {
      "type": "Feature",
      "properties": {
        "norad_id": 38867,
        "name": "INTELSAT 23 (IS-23)",
        "group": "intelsat",
        "lat": 0.026198059094038748,
        "lon": 149.6294022860899,
        "alt_km": 35788.54124650782,
        "timestamp": "2025-12-20T07:33:50.471597+00:00",
        "meta_object_name": "INTELSAT 23 (IS-23)",
        "meta_object_id": "2012-057A",
        "meta_epoch": "2025-12-19T18:08:46.361760",
        "meta_mean_motion": 1.00270282,
        "meta_eccentricity": 5.784e-05,
        "meta_inclination": 0.0148,
        "meta_ra_of_asc_node": 49.4556,
        "meta_arg_of_pericenter": 244.3667,
        "meta_mean_anomaly": 14.0058,
        "meta_ephemeris_type": 0,
        "meta_classification_type": "U",
        "meta_norad_cat_id": 38867,
        "meta_element_set_no": 999,
        "meta_rev_at_epoch": 4815,
        "meta_bstar": 0,
        "meta_mean_motion_dot": -2.6e-06,
        "meta_mean_motion_ddot": 0,
        "tle_line1": "1 38867U 12057A   25353.75609215 -.00000260  00000+0  00000+0 0  9997",
        "tle_line2": "2 38867   0.0148  49.4556 0000578 244.3667  14.0058  1.00270282 48150"
      },
      "geometry": {
        "type": "Point",
        "coordinates": [
          149.6294022860899,
          0.026198059094038748
        ]
      }
    },
    {
      "type": "Feature",
      "properties": {
        "norad_id": 39360,
        "name": "FM-6",
        "group": "intelsat",
        "lat": 0.020121163920390803,
        "lon": 86.40160066144057,
        "alt_km": 35786.767825451236,
        "timestamp": "2025-12-20T07:33:50.471609+00:00",
        "meta_object_name": "FM-6",
        "meta_object_id": "2013-058A",
        "meta_epoch": "2025-12-19T13:17:47.071392",
        "meta_mean_motion": 1.00268723,
        "meta_eccentricity": 0.00030354,
        "meta_inclination": 0.0116,
        "meta_ra_of_asc_node": 64.371,
        "meta_arg_of_pericenter": 111.3977,
        "meta_mean_anomaly": 355.921,
        "meta_ephemeris_type": 0,
        "meta_classification_type": "U",
        "meta_norad_cat_id": 39360,
        "meta_element_set_no": 999,
        "meta_rev_at_epoch": 4427,
        "meta_bstar": 0,
        "meta_mean_motion_dot": 8e-08,
        "meta_mean_motion_ddot": 0,
        "tle_line1": "1 39360U 13058A   25353.55401703  .00000008  00000+0  00000+0 0  9997",
        "tle_line2": "2 39360   0.0116  64.3710 0003035 111.3977 355.9210  1.00268723 44273"
      },
      "geometry": {
        "type": "Point",
        "coordinates": [
          86.40160066144057,
          0.020121163920390803
        ]
      }
    },
    {
      "type": "Feature",
      "properties": {
        "norad_id": 40271,
        "name": "INTELSAT 30 (IS-30)",
        "group": "intelsat",
        "lat": 0.038979397444866684,
        "lon": 107.5528195516944,
        "alt_km": 35779.70780378219,
        "timestamp": "2025-12-20T07:33:50.471621+00:00",
        "meta_object_name": "INTELSAT 30 (IS-30)",
        "meta_object_id": "2014-062A",
        "meta_epoch": "2025-12-19T19:39:22.686048",
        "meta_mean_motion": 1.00270758,
        "meta_eccentricity": 0.00016331,
        "meta_inclination": 0.0146,
        "meta_ra_of_asc_node": 25.4584,
        "meta_arg_of_pericenter": 66.8545,
        "meta_mean_anomaly": 196.1418,
        "meta_ephemeris_type": 0,
        "meta_classification_type": "U",
        "meta_norad_cat_id": 40271,
        "meta_element_set_no": 999,
        "meta_rev_at_epoch": 499,
        "meta_bstar": 0,
        "meta_mean_motion_dot": -1.26e-06,
        "meta_mean_motion_ddot": 0,
        "tle_line1": "1 40271U 14062A   25353.81901257 -.00000126  00000+0  00000+0 0  9996",
        "tle_line2": "2 40271   0.0146  25.4584 0001633  66.8545 196.1418  1.00270758  4994"
      },
      "geometry": {
        "type": "Point",
        "coordinates": [
          107.5528195516944,
          0.038979397444866684
        ]
      }
    },
    {
      "type": "Feature",
      "properties": {
        "norad_id": 40333,
        "name": "DIRECTV 14",
        "group": "intelsat",
        "lat": 0.03885714241275736,
        "lon": 103.38360311636643,
        "alt_km": 35784.92660214459,
        "timestamp": "2025-12-20T07:33:50.471633+00:00",
        "meta_object_name": "DIRECTV 14",
        "meta_object_id": "2014-078B",
        "meta_epoch": "2025-12-19T16:13:00.599232",
        "meta_mean_motion": 1.00271466,
        "meta_eccentricity": 3.907e-05,
        "meta_inclination": 0.0182,
        "meta_ra_of_asc_node": 338.4669,
        "meta_arg_of_pericenter": 165.2369,
        "meta_mean_anomaly": 88.8552,
        "meta_ephemeris_type": 0,
        "meta_classification_type": "U",
        "meta_norad_cat_id": 40333,
        "meta_element_set_no": 999,
        "meta_rev_at_epoch": 4024,
        "meta_bstar": 0,
        "meta_mean_motion_dot": -1.01e-06,
        "meta_mean_motion_ddot": 0,
        "tle_line1": "1 40333U 14078B   25353.67570138 -.00000101  00000+0  00000+0 0  9999",
        "tle_line2": "2 40333   0.0182 338.4669 0000390 165.2369  88.8552  1.00271466 40242"
      },
      "geometry": {
        "type": "Point",
        "coordinates": [
          103.38360311636643,
          0.03885714241275736
        ]
      }
    },
    {
      "type": "Feature",
      "properties": {
        "norad_id": 40663,
        "name": "DIRECTV 15",
        "group": "intelsat",
        "lat": 0.03976395917579643,
        "lon": 99.73109318491372,
        "alt_km": 35785.31239808562,
        "timestamp": "2025-12-20T07:33:50.471644+00:00",
        "meta_object_name": "DIRECTV 15",
        "meta_object_id": "2015-026A",
        "meta_epoch": "2025-12-19T19:37:07.901184",
        "meta_mean_motion": 1.00271591,
        "meta_eccentricity": 2.084e-05,
        "meta_inclination": 0.0174,
        "meta_ra_of_asc_node": 339.1795,
        "meta_arg_of_pericenter": 140.8553,
        "meta_mean_anomaly": 160.0394,
        "meta_ephemeris_type": 0,
        "meta_classification_type": "U",
        "meta_norad_cat_id": 40663,
        "meta_element_set_no": 999,
        "meta_rev_at_epoch": 3866,
        "meta_bstar": 0,
        "meta_mean_motion_dot": -7.8e-07,
        "meta_mean_motion_ddot": 0,
        "tle_line1": "1 40663U 15026A   25353.81745256 -.00000078  00000+0  00000+0 0  9993",
        "tle_line2": "2 40663   0.0174 339.1795 0000208 140.8553 160.0394  1.00271591 38668"
      },
      "geometry": {
        "type": "Point",
        "coordinates": [
          99.73109318491372,
          0.03976395917579643
        ]
      }
    },
    {
      "type": "Feature",
      "properties": {
        "norad_id": 40664,
        "name": "SKY MEXICO-1",
        "group": "intelsat",
        "lat": 0.018189730656249594,
        "lon": 123.83254127055093,
        "alt_km": 35795.23143714168,
        "timestamp": "2025-12-20T07:33:50.471656+00:00",
        "meta_object_name": "SKY MEXICO-1",
        "meta_object_id": "2015-026B",
        "meta_epoch": "2025-12-19T09:43:10.843104",
        "meta_mean_motion": 1.00272289,
        "meta_eccentricity": 0.000231,
        "meta_inclination": 0.0116,
        "meta_ra_of_asc_node": 321.764,
        "meta_arg_of_pericenter": 322.6243,
        "meta_mean_anomaly": 230.8994,
        "meta_ephemeris_type": 0,
        "meta_classification_type": "U",
        "meta_norad_cat_id": 40664,
        "meta_element_set_no": 999,
        "meta_rev_at_epoch": 3865,
        "meta_bstar": 0,
        "meta_mean_motion_dot": -2.1e-06,
        "meta_mean_motion_ddot": 0,
        "tle_line1": "1 40664U 15026B   25353.40498661 -.00000210  00000+0  00000+0 0  9992",
        "tle_line2": "2 40664   0.0116 321.7640 0002310 322.6243 230.8994  1.00272289 38659"
      },
      "geometry": {
        "type": "Point",
        "coordinates": [
          123.83254127055093,
          0.018189730656249594
        ]
      }
    },
    {
      "type": "Feature",
      "properties": {
        "norad_id": 40874,
        "name": "INTELSAT 34 (IS-34)",
        "group": "intelsat",
        "lat": 0.015173345418660604,
        "lon": 147.09874388853692,
        "alt_km": 35783.29115018564,
        "timestamp": "2025-12-20T07:33:50.471668+00:00",
        "meta_object_name": "INTELSAT 34 (IS-34)",
        "meta_object_id": "2015-039A",
        "meta_epoch": "2025-12-19T19:50:51.586080",
        "meta_mean_motion": 1.00272065,
        "meta_eccentricity": 6.617e-05,
        "meta_inclination": 0.0164,
        "meta_ra_of_asc_node": 342.9377,
        "meta_arg_of_pericenter": 169.2315,
        "meta_mean_anomaly": 178.7132,
        "meta_ephemeris_type": 0,
        "meta_classification_type": "U",
        "meta_norad_cat_id": 40874,
        "meta_element_set_no": 999,
        "meta_rev_at_epoch": 3782,
        "meta_bstar": 0,
        "meta_mean_motion_dot": -2.61e-06,
        "meta_mean_motion_ddot": 0,
        "tle_line1": "1 40874U 15039A   25353.82698595 -.00000261  00000+0  00000+0 0  9999",
        "tle_line2": "2 40874   0.0164 342.9377 0000661 169.2315 178.7132  1.00272065 37823"
      },
      "geometry": {
        "type": "Point",
        "coordinates": [
          147.09874388853692,
          0.015173345418660604
        ]
      }
    }
  ]
}